NORAD_CAT_ID,OBJECT_NAME,OBJECT_TYPE,EPOCH,MEAN_MOTION,ECCENTRICITY,INCLINATION,RA_OF_ASC_NODE,ARG_OF_PERICENTER,MEAN_ANOMALY,BSTAR,MEAN_MOTION_DOT,MEAN_MOTION_DDOT,TLE_LINE0,TLE_LINE1,TLE_LINE2,SEMIMAJOR_AXIS,PERIOD,APOGEE,PERIGEE,DECAYED
56463.0,STARLINK-6051,PAYLOAD,2024-01-06 07:31:51,14.98326931,0.0002884,70.0001,344.9295,257.8477,102.2359,-5.2867e-05,-7.24e-06,0.0,0 STARLINK-6051,1 56463U 23064R   24006.31379135 -.00000724  00000-0 -52867-4 0  9990,2 56463  70.0001 344.9295 0002884 257.8477 102.2359 14.98326931 36403,6950.202,96.107,574.072,570.063,0.0
56463.0,STARLINK-6051,PAYLOAD,2024-01-06 17:08:40,14.98325664,0.0002982,70.0001,343.9193,260.8887,99.1934,-5.0318e-05,-6.93e-06,0.0,0 STARLINK-6051,1 56463U 23064R   24006.71435278 -.00000693  00000-0 -50318-4 0  9999,2 56463  70.0001 343.9193 0002982 260.8887  99.1934 14.98325664 36468,6950.206,96.107,574.144,569.999,0.0
56463.0,STARLINK-6051,PAYLOAD,2024-01-07 04:21:36,14.98329011,0.0003282,70.0003,342.7411,270.0969,89.9814,-0.00013259,-1.675e-05,0.0,0 STARLINK-6051,1 56463U 23064R   24007.18167385 -.00001675  00000-0 -13259-3 0  9995,2 56463  70.0003 342.7411 0003282 270.0969  89.9814 14.98329011 36899,6950.196,96.107,574.342,569.78,0.0
56463.0,STARLINK-6051,PAYLOAD,2024-01-07 07:33:52,14.98332298,0.0003009,70.0004,342.4042,268.6771,91.4044,-0.00010882,-1.391e-05,0.0,0 STARLINK-6051,1 56463U 23064R   24007.31519123 -.00001391  00000-0 -10882-3 0  9995,2 56463  70.0004 342.4042 0003009 268.6771  91.4044 14.98332298 36555,6950.186,96.107,574.142,569.959,0.0
56463.0,STARLINK-6051,PAYLOAD,2024-01-07 21:59:05,14.98310835,0.0002852,70.0004,340.8891,265.0762,95.0072,0.00028762,3.339e-05,0.0,0 STARLINK-6051,1 56463U 23064R   24007.91603198  .00003339  00000-0  28762-3 0  9995,2 56463  70.0004 340.8891 0002852 265.0762  95.0072 14.98310835 36649,6950.252,96.108,574.099,570.135,0.0
56463.0,STARLINK-6051,PAYLOAD,2024-01-08 07:35:53,14.98327633,0.0002873,70.0003,339.8791,264.6834,95.3998,0.00010175,1.121e-05,0.0,0 STARLINK-6051,1 56463U 23064R   24008.31658956  .00001121  00000-0  10175-3 0  9998,2 56463  70.0003 339.8791 0002873 264.6834  95.3998 14.98327633 37064,6950.2,96.107,574.062,570.068,0.0
56463.0,STARLINK-6051,PAYLOAD,2024-01-08 22:01:06,14.98326994,0.0002784,70.0004,338.3637,263.771,96.3132,8.0391e-05,8.66e-06,0.0,0 STARLINK-6051,1 56463U 23064R   24008.91743152  .00000866  00000-0  80391-4 0  9990,2 56463  70.0004 338.3637 0002784 263.7710  96.3132 14.98326994 36791,6950.202,96.107,574.002,570.132,0.0
56463.0,STARLINK-6051,PAYLOAD,2024-01-09 07:37:54,14.98330885,0.0002787,70.0006,337.3542,263.3749,96.7093,8.047e-05,8.67e-06,0.0,0 STARLINK-6051,1 56463U 23064R   24009.31798951  .00000867  00000-0  80470-4 0  9991,2 56463  70.0006 337.3542 0002787 263.3749  96.7093 14.98330885 37210,6950.19,96.107,573.992,570.118,0.0
56463.0,STARLINK-6051,PAYLOAD,2024-01-09 22:03:06,14.98331467,0.0002735,70.0006,335.8381,264.6594,95.4253,1.3766e-05,7.1e-07,0.0,0 STARLINK-6051,1 56463U 23064R   24009.91883065  .00000071  00000-0  13766-4 0  9999,2 56463  70.0006 335.8381 0002735 264.6594  95.4253 14.98331467 36949,6950.188,96.107,573.954,570.152,0.0
56463.0,STARLINK-6051,PAYLOAD,2024-01-10 07:39:56,14.9831566,0.0002805,70.0006,334.8281,275.5984,84.4855,-0.00015964,-1.996e-05,0.0,0 STARLINK-6051,1 56463U 23064R   24010.31940498 -.00001996  00000-0 -15964-3 0  9999,2 56463  70.0006 334.8281 0002805 275.5984  84.4855 14.98315660 37369,6950.237,96.108,574.052,570.153,0.0
56463.0,STARLINK-6051,PAYLOAD,2024-01-11 02:53:34,14.98308461,0.0002694,70.0011,332.8088,275.3082,84.7769,-0.00019357,-2.4e-05,0.0,0 STARLINK-6051,1 56463U 23064R   24011.12054004 -.00002400  00000-0 -19357-3 0  9999,2 56463  70.0011 332.8088 0002694 275.3082  84.7769 14.98308461 37482,6950.259,96.108,573.997,570.252,0.0
56463.0,STARLINK-6051,PAYLOAD,2024-01-11 07:41:58,14.9831385,0.000245,70.0015,332.3047,270.8624,89.2254,-0.00012028,-1.527e-05,0.0,0 STARLINK-6051,1 56463U 23064R   24011.32081673 -.00001527  00000-0 -12028-3 0  9990,2 56463  70.0015 332.3047 0002450 270.8624  89.2254 14.98313850 37519,6950.243,96.108,573.811,570.405,0.0
56463.0,STARLINK-6051,PAYLOAD,2024-01-11 20:31:02,14.9832588,0.0003318,69.9997,330.9551,281.5114,78.5673,3.1243e-05,2.8e-06,0.0,0 STARLINK-6051,1 56463U 23064R   24011.85488618  .00000280  00000-0  31243-4 0  9992,2 56463  69.9997 330.9551 0003318 281.5114  78.5673 14.98325880 37596,6950.206,96.107,574.377,569.765,0.0
56463.0,STARLINK-6051,PAYLOAD,2024-01-11 22:07:10,14.98319221,0.0003071,69.9987,330.79,284.1003,75.9815,0.00020272,2.326e-05,0.0,0 STARLINK-6051,1 56463U 23064R   24011.92164595  .00002326  00000-0  20272-3 0  9997,2 56463  69.9987 330.7900 0003071 284.1003  75.9815 14.98319221 37246,6950.226,96.108,574.226,569.957,0.0
56463.0,STARLINK-6051,PAYLOAD,2024-01-12 02:55:33,14.98332077,0.0002389,70.0014,330.2846,267.0674,93.0211,0.00012718,1.425e-05,0.0,0 STARLINK-6051,1 56463U 23064R   24012.12192040  .00001425  00000-0  12718-3 0  9991,2 56463  70.0014 330.2846 0002389 267.0674  93.0211 14.98332077 37637,6950.186,96.107,573.712,570.391,0.0
56463.0,STARLINK-6051,PAYLOAD,2024-01-12 07:43:57,14.98335435,0.0002147,70.0019,329.7798,262.9351,97.1564,0.00016641,1.893e-05,0.0,0 STARLINK-6051,1 56463U 23064R   24012.32219729  .00001893  00000-0  16641-3 0  9995,2 56463  70.0019 329.7798 0002147 262.9351  97.1564 14.98335435 37300,6950.176,96.107,573.533,570.549,0.0
56463.0,STARLINK-6051,PAYLOAD,2024-01-12 22:09:10,14.98334559,0.0002451,70.0011,328.2662,257.9171,102.1714,0.00026946,3.124e-05,0.0,0 STARLINK-6051,1 56463U 23064R   24012.92303452  .00003124  00000-0  26946-3 0  9996,2 56463  70.0011 328.2662 0002451 257.9171 102.1714 14.98334559 37397,6950.179,96.107,573.747,570.34,0.0
56463.0,STARLINK-6051,PAYLOAD,2024-01-13 02:57:34,14.98336249,0.0002449,70.0011,327.7608,260.104,99.9842,0.00027193,3.154e-05,0.0,0 STARLINK-6051,1 56463U 23064R   24013.12331318  .00003154  00000-0  27193-3 0  9999,2 56463  70.0011 327.7608 0002449 260.1040  99.9842 14.98336249 37785,6950.174,96.107,573.741,570.336,0.0
56463.0,STARLINK-6051,PAYLOAD,2024-01-13 07:45:58,14.98336134,0.0002312,70.0014,327.2553,257.0314,103.0587,0.00029109,3.382e-05,0.0,0 STARLINK-6051,1 56463U 23064R   24013.32359090  .00003382  00000-0  29109-3 0  9990,2 56463  70.0014 327.2553 0002312 257.0314 103.0587 14.98336134 37450,6950.174,96.107,573.646,570.432,0.0
56463.0,STARLINK-6051,PAYLOAD,2024-01-14 04:35:42,14.98405721,0.0002694,70.0021,325.0688,241.1109,118.978,-0.0013178,-0.00015812,0.0,0 STARLINK-6051,1 56463U 23064R   24014.19146034 -.00015812  00000-0 -13178-2 0  9999,2 56463  70.0021 325.0688 0002694 241.1109 118.9780 14.98405721 37945,6949.959,96.102,573.696,569.951,0.0
56463.0,STARLINK-6051,PAYLOAD,2024-01-14 06:11:51,14.98339705,0.0002667,70.0003,324.8969,271.3828,88.7026,-7.7581e-05,-1.019e-05,0.0,0 STARLINK-6051,1 56463U 23064R   24014.25823403 -.00001019  00000-0 -77581-4 0  9992,2 56463  70.0003 324.8969 0002667 271.3828  88.7026 14.98339705 37953,6950.163,96.106,573.881,570.174,0.0
56463.0,STARLINK-6051,PAYLOAD,2024-01-14 22:13:11,14.98343329,0.0002756,70.0002,323.2142,267.2638,92.8206,-7.2908e-05,-9.63e-06,0.0,0 STARLINK-6051,1 56463U 23064R   24014.92582703 -.00000963  00000-0 -72908-4 0  9996,2 56463  70.0002 323.2142 0002756 267.2638  92.8206 14.98343329 37694,6950.152,96.106,573.932,570.101,0.0
56463.0,STARLINK-6051,PAYLOAD,2024-01-15 03:01:35,14.98344301,0.000251,70.0005,322.7082,261.5693,98.5182,-8.7157e-06,-1.97e-06,0.0,0 STARLINK-6051,1 56463U 23064R   24015.12610294 -.00000197  00000-0 -87157-5 0  9998,2 56463  70.0005 322.7082 0002510 261.5693  98.5182 14.98344301 38081,6950.149,96.106,573.758,570.269,0.0
56463.0,STARLINK-6051,PAYLOAD,2024-01-15 06:13:50,14.98351968,0.000258,70.0006,322.3728,264.8283,95.2582,4.7945e-05,4.79e-06,0.0,0 STARLINK-6051,1 56463U 23064R   24015.25961509  .00000479  00000-0  47945-4 0  9991,2 56463  70.0006 322.3728 0002580 264.8283  95.2582 14.98351968 38101,6950.125,96.106,573.783,570.197,0.0
56463.0,STARLINK-6051,PAYLOAD,2024-01-15 20:39:05,14.98320491,0.000218,70.0023,320.861,257.507,102.5846,-2.7034e-05,-4.15e-06,0.0,0 STARLINK-6051,1 56463U 23064R   24015.86047564 -.00000415  00000-0 -27034-4 0  9993,2 56463  70.0023 320.8610 0002180 257.5070 102.5846 14.98320491 37833,6950.222,96.108,573.602,570.572,0.0
56463.0,STARLINK-6051,PAYLOAD,2024-01-15 23:51:21,14.98320278,0.0002826,70.0004,320.5212,270.7755,89.308,-9.4761e-05,-1.223e-05,0.0,0 STARLINK-6051,1 56463U 23064R   24015.99399880 -.00001223  00000-0 -94761-4 0  9997,2 56463  70.0004 320.5212 0002826 270.7755  89.3080 14.98320278 38219,6950.223,96.108,574.052,570.124,0.0
56463.0,STARLINK-6051,PAYLOAD,2024-01-16 03:03:37,14.9832011,0.0002662,70.0006,320.1858,260.3954,99.6905,-8.618e-05,-1.121e-05,0.0,0 STARLINK-6051,1 56463U 23064R   24016.12751828 -.00001121  00000-0 -86180-4 0  9990,2 56463  70.0006 320.1858 0002662 260.3954  99.6905 14.98320110 37873,6950.223,96.108,573.939,570.238,0.0
56463.0,STARLINK-6051,PAYLOAD,2024-01-16 19:04:57,14.98333541,0.0002668,70.0004,318.5008,263.7904,96.2951,-7.5552e-05,-9.94e-06,0.0,0 STARLINK-6051,1 56463U 23064R   24016.79511110 -.00000994  00000-0 -75552-4 0  9999,2 56463  70.0004 318.5008 0002668 263.7904  96.2951 14.98333541 38335,6950.182,96.107,573.901,570.193,0.0
56463.0,STARLINK-6051,PAYLOAD,2024-01-16 22:17:13,14.98332858,0.0002774,70.0007,318.1653,264.3066,95.7777,-4.95e-05,-6.84e-06,0.0,0 STARLINK-6051,1 56463U 23064R   24016.92863020 -.00000684  00000-0 -49500-4 0  9994,2 56463  70.0007 318.1653 0002774 264.3066  95.7777 14.98332858 37995,6950.184,96.107,573.977,570.121,0.0
56463.0,STARLINK-6051,PAYLOAD,2024-01-17 06:17:53,14.98337927,0.0002316,70.0013,317.3233,256.5927,103.4974,6.415e-06,-1.6e-07,0.0,0 STARLINK-6051,1 56463U 23064R   24017.26242500 -.00000016  00000-0  64150-5 0  9993,2 56463  70.0013 317.3233 0002316 256.5927 103.4974 14.98337927 38403,6950.168,96.106,573.643,570.424,0.0
